     2.100          NAVIGATION                              RINEX VERSION / TYPE
fic2rin                                 12/18/2009 01:00:52 PGM / RUN BY / DATE
                                                            END OF HEADER
25 09 12 17  6  0  0.0  .556614249945D-04  .111413100967D-10  .000000000000D+00
     .890000000000D+02 -.899062500000D+02  .455768984608D-08  .848687188668D+00
    -.484101474285D-05  .114632040495D-01  .197067856789D-05  .515369606400D+04
     .367200000000D+06 -.134110450745D-06 -.982613690307D+00 -.219792127609D-06
     .971776486803D+00  .350031250000D+03 -.121967974207D+01 -.843142263117D-08
    -.168935608275D-09  .100000000000D+01  .156200000000D+04  .000000000000D+00
     .240000000000D+01  .000000000000D+00 -.745058059692D-08  .890000000000D+02
     .360006000000D+06  .400000000000D+01
26 09 12 17  6  0  0.0 -.280234962702D-05 -.250111042988D-11  .000000000000D+00
     .710000000000D+02  .943437500000D+02  .397909431668D-08  .207663499701D+01
     .451877713203D-05  .196332377382D-01  .271759927273D-05  .515361699486D+04
     .367200000000D+06 -.128522515297D-06 -.187677903609D+01 -.413507223129D-06
     .991550143369D+00  .342937500000D+03  .104978969623D+01 -.780246786125D-08
     .274297139863D-09  .100000000000D+01  .156200000000D+04  .000000000000D+00
     .240000000000D+01  .000000000000D+00 -.605359673500D-08  .710000000000D+02
     .360006000000D+06  .400000000000D+01
27 09 12 17  6  0  0.0  .109080690891D-03  .329691829393D-11  .000000000000D+00
     .540000000000D+02 -.834375000000D+02  .441554106787D-08 -.135569228881D+01
    -.375136733055D-05  .216944462154D-01  .224262475967D-05  .515369801331D+04
     .367200000000D+06 -.217929482460D-06 -.945546014541D+00  .536441802979D-06
     .976674715428D+00  .346625000000D+03 -.150294121382D+01 -.830213153139D-08
    -.175721605224D-09  .100000000000D+01  .156200000000D+04  .000000000000D+00
     .485000000000D+01  .000000000000D+00 -.419095158577D-08  .540000000000D+02
     .360006000000D+06  .400000000000D+01
28 09 12 17  6  0  0.0 -.246404670179D-04  .341060513165D-12  .000000000000D+00
     .100000000000D+03 -.801562500000D+02  .416231623432D-08 -.330985367578D+00
    -.415928661823D-05  .155076937517D-01  .107474625111D-04  .515366451073D+04
     .367200000000D+06 -.108033418655D-06  .189448979676D+00  .154599547386D-06
     .968993026220D+00  .178531250000D+03 -.200254299027D+01 -.798461830569D-08
     .222509268404D-09  .100000000000D+01  .156200000000D+04  .000000000000D+00
     .240000000000D+01  .000000000000D+00 -.107102096081D-07  .100000000000D+03
     .360006000000D+06  .400000000000D+01
29 09 12 17  6  0  0.0  .827899202704D-04  .306954461848D-11  .000000000000D+00
     .143000000000D+03  .130937500000D+02  .476698427832D-08  .177738242771D+01
     .597909092903D-06  .286837562453D-02  .668875873089D-05  .515354546738D+04
     .367200000000D+06  .856816768646D-07  .123231039390D+01 -.372529029846D-07
     .959838033678D+00  .249218750000D+03 -.127434113482D+01 -.791890128260D-08
     .416803075807D-09  .100000000000D+01  .156200000000D+04  .000000000000D+00
     .240000000000D+01  .000000000000D+00 -.884756445885D-08  .143000000000D+03
     .360006000000D+06  .400000000000D+01
31 09 12 17  6  0  0.0 -.584064982831D-04  .113686837722D-11  .000000000000D+00
     .820000000000D+02 -.101562500000D+03  .429910764652D-08  .248487609405D+01
    -.510364770889D-05  .744441943243D-02  .215321779251D-05  .515358299446D+04
     .367200000000D+06  .158324837685D-06 -.889661047348D+00 -.372529029846D-07
     .975157192468D+00  .343343750000D+03 -.113556553519D+01 -.805319259065D-08
    -.284654714154D-09  .100000000000D+01  .156200000000D+04  .000000000000D+00
     .240000000000D+01  .000000000000D+00 -.130385160446D-07  .820000000000D+02
     .360006000000D+06  .400000000000D+01
32 09 12 17  6  0  0.0  .136435031891D-03 -.773070496507D-11  .000000000000D+00
     .160000000000D+02  .109437500000D+03  .402159608705D-08 -.297377892007D+01
     .558607280254D-05  .131077057449D-01  .996701419353D-05  .515364610291D+04
     .367200000000D+06  .707805156708D-07 -.289951915759D+01  .171363353729D-06
     .961692795828D+00  .183312500000D+03 -.105518603822D+01 -.747138264165D-08
    -.110361739867D-09  .100000000000D+01  .156200000000D+04  .000000000000D+00
     .240000000000D+01  .000000000000D+00 -.325962901115D-08  .160000000000D+02
     .360006000000D+06  .400000000000D+01
27 09 12 17  5 59 44.0  .109088607132D-03  .329691829393D-11  .000000000000D+00
     .120000000000D+02 -.834375000000D+02  .441554106787D-08 -.135802553343D+01
    -.375136733055D-05  .216944436543D-01  .224262475967D-05  .515369801331D+04
     .367184000000D+06 -.217929482460D-06 -.945545866786D+00  .536441802979D-06
     .976674718354D+00  .346625000000D+03 -.150294175217D+01 -.830213153139D-08
    -.175721605224D-09  .100000000000D+01  .156200000000D+04  .000000000000D+00
     .240000000000D+01  .000000000000D+00 -.419095158577D-08  .120000000000D+02
     .363216000000D+06  .400000000000D+01
22 09 12 17  5 59 44.0  .183844473213D-03 -.795807864051D-12  .000000000000D+00
     .280000000000D+02  .830000000000D+02  .475126933801D-08 -.576741303407D+00
     .438094139099D-05  .519279355649D-02  .105444341898D-04  .515366890526D+04
     .367184000000D+06 -.391155481339D-07 -.295415897084D+01  .968575477600D-07
     .937609248012D+00  .165562500000D+03 -.187565603141D+01 -.807783647431D-08
    -.165006873199D-09  .100000000000D+01  .156200000000D+04  .000000000000D+00
     .240000000000D+01  .000000000000D+00 -.176951289177D-07  .280000000000D+02
     .363876000000D+06  .400000000000D+01
25 09 12 17  5 59 44.0  .556670129299D-04  .111413100967D-10  .000000000000D+00
     .650000000000D+02 -.899062500000D+02  .455768984608D-08  .846353745094D+00
    -.484101474285D-05  .114632013720D-01  .197067856789D-05  .515369606590D+04
     .367184000000D+06 -.134110450745D-06 -.982613546941D+00 -.219792127609D-06
     .971776492654D+00  .350031250000D+03 -.121968003611D+01 -.843106547343D-08
    -.168935608275D-09  .100000000000D+01  .156200000000D+04  .000000000000D+00
     .240000000000D+01  .000000000000D+00 -.745058059692D-08  .650000000000D+02
     .364746000000D+06  .400000000000D+01
22 09 12 17  7 59 44.0  .183838885278D-03 -.795807864051D-12  .000000000000D+00
     .290000000000D+02  .835937500000D+02  .468126642211D-08  .473398589077D+00
     .436231493950D-05  .519359495956D-02  .108033418655D-04  .515367040062D+04
     .374384000000D+06 -.137835741043D-06 -.295421646206D+01 -.372529029846D-08
     .937607839221D+00  .158593750000D+03 -.187561106863D+01 -.804247785863D-08
    -.268582616115D-09  .100000000000D+01  .156200000000D+04  .000000000000D+00
     .240000000000D+01  .000000000000D+00 -.176951289177D-07  .290000000000D+02
     .367206000000D+06  .400000000000D+01
25 09 12 17  7 59 44.0  .557471066713D-04  .111413100967D-10  .000000000000D+00
     .660000000000D+02 -.846875000000D+02  .434268089009D-08  .189639250898D+01
    -.450387597084D-05  .114633615594D-01  .134110450745D-05  .515369884109D+04
     .374384000000D+06  .204890966415D-06 -.982672417691D+00 -.353902578354D-07
     .971776845218D+00  .359125000000D+03 -.121955303873D+01 -.804783522464D-08
    -.219652006531D-09  .100000000000D+01  .156200000000D+04  .000000000000D+00
     .240000000000D+01  .000000000000D+00 -.745058059692D-08  .660000000000D+02
     .367206000000D+06  .400000000000D+01
27 09 12 17  7 59 44.0  .109112355858D-03  .329691829393D-11  .000000000000D+00
     .130000000000D+02 -.870937500000D+02  .441411243693D-08 -.307885042614D+00
    -.461377203465D-05  .216942324769D-01  .252202153206D-05  .515369693756D+04
     .374384000000D+06 -.359490513802D-06 -.945607993991D+00  .931322574615D-07
     .976673034535D+00  .343593750000D+03 -.150291566834D+01 -.857249993617D-08
    -.885751180806D-10  .100000000000D+01  .156200000000D+04  .000000000000D+00
     .240000000000D+01  .000000000000D+00 -.419095158577D-08  .130000000000D+02
     .367206000000D+06  .400000000000D+01
 1 09 12 17  8  0  0.0 -.714948400855D-04 -.272848410532D-11  .000000000000D+00
     .540000000000D+02 -.103281250000D+03  .540701093799D-08  .161336831083D+01
    -.531040132046D-05  .380953238346D-02  .103116035461D-04  .515367405701D+04
     .374400000000D+06 -.124797224998D-06  .150825752395D+00  .167638063431D-07
     .963368313940D+00  .180812500000D+03  .956500346582D+00 -.771960726691D-08
     .240724312848D-09  .100000000000D+01  .156200000000D+04  .000000000000D+00
     .240000000000D+01  .630000000000D+02 -.190921127796D-07  .540000000000D+02
     .367206000000D+06  .400000000000D+01
 2 09 12 17  8  0  0.0  .204561278224D-03  .454747350886D-11  .000000000000D+00
     .120000000000D+02 -.151875000000D+02  .518164440772D-08 -.970451194205D+00
    -.765547156334D-06  .921428308357D-02  .656023621559D-05  .515374031639D+04
     .374400000000D+06 -.111758708954D-07  .223651600750D+01 -.227242708206D-06
     .940168014617D+00  .245062500000D+03  .292684764789D+01 -.818141221723D-08
    -.393230665350D-09  .100000000000D+01  .156200000000D+04  .000000000000D+00
     .240000000000D+01  .000000000000D+00 -.172294676304D-07  .120000000000D+02
     .367206000000D+06  .400000000000D+01
 3 09 12 17  8  0  0.0  .489104539156D-03  .522959453519D-11  .000000000000D+00
     .179000000000D+03  .166562500000D+02  .544951270836D-08 -.119342756156D+01
     .994652509689D-06  .127305597998D-01  .700354576111D-05  .515367364693D+04
     .374400000000D+06  .225380063057D-06  .108578985727D+01  .208616256714D-06
     .926463648210D+00  .224937500000D+03  .973540129637D+00 -.836320550394D-08
     .442518432669D-09  .100000000000D+01  .156200000000D+04  .000000000000D+00
     .340000000000D+01  .000000000000D+00 -.419095158577D-08  .179000000000D+03
     .367206000000D+06  .400000000000D+01
